OBJECT_NAME,OBJECT_ID,EPOCH,MEAN_MOTION,ECCENTRICITY,INCLINATION,RA_OF_ASC_NODE,ARG_OF_PERICENTER,MEAN_ANOMALY,EPHEMERIS_TYPE,CLASSIFICATION_TYPE,NORAD_CAT_ID,ELEMENT_SET_NO,REV_AT_EPOCH,BSTAR,MEAN_MOTION_DOT,MEAN_MOTION_DDOT
OPS 6582 (TRANSIT 5B-5),1964-083D,2026-05-18T10:35:47.143104,13.57009764,.0041681,90.0787,202.7992,7.8774,2.6820,0,U,965,999,3958,.6469E-4,.55E-6,0
LES-1,1965-008C,2026-05-18T05:12:09.320256,9.88355262,.0015426,32.1395,115.7012,162.9856,197.1160,0,U,1002,999,21322,-.24505E-2,-.1E-6,0
SOLRAD 7B,1965-016D,2026-05-18T11:56:12.685920,13.94971944,.0020414,70.0789,299.3839,166.8932,193.2708,0,U,1291,999,11256,.22335E-4,-.22E-6,0
SECOR 4 (EGRS 4),1965-027B,2026-05-18T09:39:27.562176,12.92667195,.0029402,90.2524,14.9027,278.8523,256.3021,0,U,1315,999,88307,-.80162E-4,-.15E-6,0
TIROS 10,1965-051A,2026-05-18T08:05:30.376896,14.41617515,.0055604,98.4999,257.8049,167.4609,192.7978,0,U,1430,999,19161,.41323E-4,.92E-6,0
ALOUETTE 2,1965-098A,2026-05-18T10:26:36.168576,12.28322050,.1330123,79.7995,301.9799,292.8957,53.7221,0,U,1804,999,67562,.49996E-4,.146E-5,0
OV3-3,1966-070A,2026-05-18T12:39:12.336768,13.44609993,.1014106,81.3276,357.1721,234.6015,115.6279,0,U,2389,999,59498,.24271E-3,.5353E-4,0
SECOR 7 (EGRS 7),1966-077B,2026-05-16T19:07:13.805184,8.59615434,.00117709,90.3326,277.0717,89.0586,271.1614,0,U,2411,999,87468,-.14505782E-1,-.28E-6,0
ERS 15,1966-077C,2026-05-16T18:38:24.651744,8.59079306,.00074223,90.3326,276.8641,98.4005,261.7688,0,U,2412,999,38776,0,.2E-7,0
ISIS 1,1969-009A,2026-05-18T10:54:47.566080,11.30428690,.1706094,88.4419,147.6685,308.3300,37.6014,0,U,3669,999,35641,.36966E-4,.5E-6,0
SECOR 13 (EGRS 13),1969-037B,2026-05-18T12:27:48.174048,13.42975901,.003906,99.6528,11.2887,325.2967,100.9968,0,U,3891,999,79777,.43434E-4,-.18E-6,0
ATS 5,1969-069A,2026-05-18T12:29:03.499296,0.99490229,.0005356,0.2334,169.5434,112.1612,6.2811,0,U,4068,999,4603,0,.111E-5,0
OPS 7613 (P/L 4),1969-082E,2026-05-18T12:18:44.297280,13.95991331,.0020225,70.0131,167.2824,176.5625,290.9323,0,U,4237,999,88216,.51778E-4,.18E-6,0
OPS 7613 (P/L 1),1969-082B,2026-05-18T10:13:10.231968,13.99188529,.0017103,70.0110,28.9498,106.5220,253.7767,0,U,4256,999,88630,.78412E-4,.61E-6,0
SHINSEI (MS-F2),1971-080A,2026-05-18T13:06:32.601888,12.74250177,.0639615,32.0552,231.3861,203.1252,153.9293,0,U,5485,999,54547,.9383E-4,.78E-6,0
PROSPERO (BLACK ARROW),1971-093A,2026-05-18T11:00:05.109408,14.01559902,.0500587,82.0371,316.9320,312.4875,43.4992,0,U,5580,999,74436,.13467E-3,.637E-5,0
OPS 7898 (P/L 2),1971-110C,2026-05-18T11:38:08.293344,13.74756158,.0009394,69.9902,64.2163,221.0305,139.0084,0,U,5680,999,34413,.34563E-4,-.17E-6,0
NOAA 2 (ITOS-D),1972-082A,2026-05-18T12:29:55.284864,12.53214051,.0003838,102.0090,156.7660,221.7818,263.8373,0,U,6235,999,45123,.48417E-5,-.46E-6,0
OSCAR 7 (AO-7),1974-089B,2026-05-18T06:54:02.507328,12.53697649,.0012217,101.9913,151.2215,186.3876,185.0624,0,U,7530,999,35677,.26139E-4,-.42E-6,0
TIROS N,1978-096A,2026-05-18T11:02:46.179744,14.19365647,.0009736,98.4548,160.8581,335.3664,24.7047,0,U,11060,999,67453,.60506E-4,.86E-6,0
PHASE 3B (AO-10),1983-058B,2026-05-16T19:21:05.021568,2.05872419,.60218023,25.8953,224.7799,107.0257,324.0438,0,U,14129,999,29484,0,-.64E-6,0
HILAT,1983-063A,2026-05-18T09:26:28.216032,14.38691484,.0039723,82.0250,188.7237,23.1600,347.6897,0,U,14154,999,24330,.64187E-4,.214E-5,0
UOSAT 2 (UO-11),1984-021B,2026-05-18T11:40:18.643296,14.90705377,.0006047,97.8041,104.3984,286.2566,73.7986,0,U,14781,999,25270,.62845E-4,.561E-5,0
NOAA 9,1984-123A,2026-05-18T07:50:03.679008,14.17059459,.0015707,99.1008,164.2699,75.9129,294.7859,0,U,15427,999,13919,.54317E-4,.63E-6,0
GEOSAT,1985-021A,2026-05-18T11:39:09.898272,14.39951427,.0001304,108.0462,19.6383,263.8803,96.2191,0,U,15595,999,15849,.51381E-4,.26E-6,0
EUTELSAT 1-F4 (ECS 4),1987-078B,2026-05-18T12:01:34.811040,0.98689408,.0011608,13.8499,342.3354,40.5681,154.1946,0,U,18351,999,12646,0,-.187E-5,0
PACSAT (AO-16),1990-005D,2026-05-18T08:50:52.001952,14.33926370,.0009836,98.8544,173.3456,324.3309,46.6119,0,U,20439,999,89766,.42861E-4,.73E-6,0
LUSAT (LO-19),1990-005G,2026-05-18T11:02:59.119008,14.34113119,.0010518,98.8867,159.4447,295.9862,64.0238,0,U,20442,999,89813,.39779E-4,.64E-6,0
IRS-1B,1991-061A,2026-05-18T12:09:41.990400,13.97871953,.0025155,99.4123,145.7137,84.0551,78.6330,0,U,21688,999,66434,-.11867E-3,-.215E-5,0
COSMOS 2197,1992-042A,2026-05-18T12:59:15.835200,12.64251564,.0012047,82.5944,247.8739,346.6738,24.6708,0,U,22034,999,56154,.11412E-3,.32E-6,0
PEGASUS R/B,1993-009C,2026-05-18T11:37:19.809120,14.57925532,.004403,24.9779,276.9321,146.3012,214.0309,0,U,22491,999,76529,.97521E-4,.667E-5,0
EYESAT A (AO-27),1993-061C,2026-05-18T10:07:38.601984,14.30933349,.0008382,98.6890,205.8442,179.9153,180.2032,0,U,22825,999,70274,.39338E-4,.59E-6,0
ITAMSAT (IO-26),1993-061D,2026-05-18T03:08:07.156032,14.31359325,.0009215,98.6838,205.4673,164.9014,195.2446,0,U,22826,999,70301,.40243E-4,.62E-6,0
RADIO ROSTO (RS15),1994-085A,2026-05-18T11:51:06.754752,11.27583629,.0155123,64.8188,351.2404,9.3231,351.0516,0,U,23439,999,29255,-.85781E-4,-.45E-6,0
JAS-2 (FO-29),1996-046B,2026-05-18T07:02:01.598784,13.53272656,.0349981,98.5270,351.2554,173.8581,186.7023,0,U,24278,999,46912,.42085E-4,.7E-7,0
FORTE,1997-047A,2026-05-18T12:48:50.171328,14.27931727,.0023902,69.9529,80.9980,313.6014,46.3124,0,U,24920,999,49445,.61639E-4,.95E-6,0
NOAA 15,1998-030A,2026-05-18T12:42:03.070944,14.27136587,.001147,98.5082,159.9613,76.5406,283.7053,0,U,25338,999,45706,.4577E-4,.69E-6,0
TECHSAT 1B (GO-32),1998-043D,2026-05-18T11:48:30.947904,14.24422024,.0000706,99.0065,130.5034,0.3468,359.7710,0,U,25397,999,44710,.26185E-4,.14E-6,0
ISS (ZARYA),1998-067A,2026-05-18T07:50:47.690304,15.49258832,.0007546,51.6324,87.9187,71.4656,288.7152,0,U,25544,999,56712,.13046E-3,.6811E-4,0
ORSTED,1999-008B,2026-05-18T11:24:10.999584,14.51781028,.0130127,96.4838,52.7366,282.1144,76.5503,0,U,25635,999,43765,.74763E-4,.301E-5,0
LANDSAT 7,1999-020A,2026-05-18T12:41:42.923328,14.63888906,.0001508,97.8585,143.5247,103.0777,54.6253,0,U,25682,999,44150,.51868E-4,.227E-5,0
ORBCOMM FM36,1999-065E,2026-05-18T09:33:10.249056,14.39138856,.0004025,45.0394,300.9985,181.4406,178.6432,0,U,25984,999,38269,.21082E-3,.516E-5,0
DMSP 5D-3 F15 (USA 147),1999-067A,2026-05-18T12:25:08.207904,14.17551587,.0011154,98.9982,176.6987,87.7619,20.4336,0,U,25991,999,36644,.75412E-4,.107E-5,0
OPAL (OO-38),2000-004C,2026-05-18T07:51:01.839168,14.37952342,.0036414,100.1907,69.6447,118.8360,241.6484,0,U,26063,999,37899,.42417E-4,.7E-6,0
IMAGE,2000-017A,2026-05-16T20:25:18.819264,1.68665369,.74554789,94.2039,314.9580,291.3690,8.2558,0,U,26113,999,16097,.11882681E-1,.32E-6,0
CLUSTER II-FM7 (SAMBA),2000-041A,2026-05-19T03:11:14.910144,0.44883482,.90185594,149.8437,45.8867,262.6588,0.3747,0,U,26410,999,2018,0,.6663E-4,0
CLUSTER II-FM8 (TANGO),2000-045B,2026-05-19T03:31:59.187648,0.44397908,.9025763,150.1023,46.8868,263.5226,0.1578,0,U,26464,999,2017,0,.6855E-4,0
MEGSAT-1,2000-057B,2026-05-18T10:47:25.670688,15.05304048,.0041281,64.5471,164.3928,287.2210,72.4391,0,U,26546,999,39318,.11483E-3,.1494E-4,0
PHASE 3D (AO-40),2000-072B,2026-05-16T14:36:23.264640,1.25588366,.79318693,9.4733,355.8648,168.5754,236.7945,0,U,26609,999,11711,0,-.85E-6,0
ODIN,2001-007A,2026-05-18T08:23:14.036064,15.67042148,.0003311,97.3910,177.5767,182.6462,177.4782,0,U,26702,999,38471,.73648E-3,.7884E-3,0
OMNI-M1,2001-026A,2026-05-16T09:05:15.687456,3.92401279,.00152975,44.8421,252.5957,48.1988,311.9568,0,U,26857,999,20432,0,-.11E-6,0
PCSAT (NO-44),2001-043C,2026-05-18T11:23:51.317664,14.31943519,.0006223,67.0508,321.1214,263.6426,96.3967,0,U,26931,999,28619,.49636E-4,.5E-6,0
PROBA-1,2001-049B,2026-05-18T11:09:26.790624,15.07373390,.0053749,97.9605,145.9619,222.0582,137.6513,0,U,26958,999,33914,.72547E-4,.106E-4,0
SPOT 5,2002-021A,2026-05-18T09:20:19.294080,14.54727772,.0129796,97.9870,178.5690,9.7925,350.5757,0,U,27421,999,25851,.64325E-4,.259E-5,0
FENGYUN 1D,2002-024B,2026-05-18T06:40:39.759744,14.10220105,.0014773,98.9540,188.7417,330.6247,29.4091,0,U,27431,999,23526,.66647E-4,.73E-6,0
SAUDISAT 1C (SO-50),2002-058C,2026-05-18T11:37:30.669600,14.82978496,.0075623,64.5521,220.8794,267.9074,91.3371,0,U,27607,999,26005,.85669E-4,.575E-5,0
CORIOLIS,2003-001A,2026-05-18T11:03:38.487168,14.19936046,.0012929,98.7134,145.7992,301.1870,58.8038,0,U,27640,999,21000,.45086E-4,.52E-6,0
CUTE-1 (CO-55),2003-031E,2026-05-18T11:06:05.360256,14.24315714,.0008279,98.6745,147.3952,272.1724,87.8507,0,U,27844,999,18744,.96921E-4,.18E-5,0
CUBESAT XI-IV (CO-57),2003-031J,2026-05-18T07:05:37.507200,14.23603354,.000828,98.6776,146.9670,294.1039,65.9273,0,U,27848,999,18712,.81891E-4,.143E-5,0
MOZHAETS 4 (RS22),2003-042A,2026-05-18T13:00:05.649984,14.73408795,.0011467,98.3461,322.0648,9.6651,82.6908,0,U,27939,999,21118,.47865E-4,.256E-5,0
IRS-P6 (RESOURCESAT-1),2003-046A,2026-05-18T11:42:08.847360,14.36150674,.0065468,98.1926,176.4527,71.7902,35.1743,0,U,28051,999,17626,.70545E-4,.17E-5,0
SAUDISAT 2,2004-025F,2026-05-18T11:49:06.112704,14.56663785,.0025342,98.5510,137.7082,30.6047,329.6623,0,U,28371,999,16142,.43304E-4,.144E-5,0
COSMOS 2407,2004-028A,2026-05-18T08:26:51.413280,13.76332009,.0038729,82.9589,96.9298,337.9700,179.3330,0,U,28380,999,9577,.25849E-4,.4E-6,0
COSMOS 2414,2005-002A,2026-05-18T06:12:24.164064,13.87923344,.0041392,82.9503,66.2825,55.8285,304.6791,0,U,28521,999,7966,.46276E-4,.71E-6,0
INMARSAT 4-F1,2005-009A,2026-05-18T01:28:48.040032,1.00270654,.0002573,5.1294,42.6983,12.6336,20.7457,0,U,28628,999,7737,0,.35E-6,0
HAMSAT (VO-52),2005-017B,2026-05-18T11:50:30.246432,15.09430320,.0020644,97.9918,160.3096,134.5015,225.7904,0,U,28650,999,14228,.17774E-3,.2786E-4,0
NOAA 18,2005-018A,2026-05-18T11:13:08.576832,14.13723410,.0013398,98.8112,218.5747,232.6512,127.3440,0,U,28654,999,8211,.40426E-4,.33E-6,0
